[{"OBJECT_NAME":"SDS-4","OBJECT_ID":"2012-025C","EPOCH":"2026-03-09T22:00:42.096096","MEAN_MOTION":14.75631591,"ECCENTRICITY":0.00056029,"INCLINATION":98.1333,"RA_OF_ASC_NODE":164.2362,"ARG_OF_PERICENTER":252.4969,"MEAN_ANOMALY":107.5627,"EPHEMERIS_TYPE":0,"CLASSIFICATION_TYPE":"U","NORAD_CAT_ID":38339,"ELEMENT_SET_NO":999,"REV_AT_EPOCH":74134,"BSTAR":0.00023374761,"MEAN_MOTION_DOT":1.543e-5,"MEAN_MOTION_DDOT":0},{"OBJECT_NAME":"COSMOS 1275 DEB","OBJECT_ID":"1981-053BQ","EPOCH":"2026-03-09T15:40:24.357216","MEAN_MOTION":14.77002931,"ECCENTRICITY":0.0001198,"INCLINATION":82.9323,"RA_OF_ASC_NODE":284.0642,"ARG_OF_PERICENTER":58.3597,"MEAN_ANOMALY":301.7733,"EPHEMERIS_TYPE":0,"CLASSIFICATION_TYPE":"U","NORAD_CAT_ID":12723,"ELEMENT_SET_NO":999,"REV_AT_EPOCH":29706,"BSTAR":0.0025696,"MEAN_MOTION_DOT":0.0001816,"MEAN_MOTION_DDOT":0}]
